CCSDS_OMM_VERS = 2.0
CREATION_DATE  = 
ORIGINATOR     = 

OBJECT_NAME    = SDA_1676
OBJECT_ID      = 2025-230N
CENTER_NAME    = EARTH
REF_FRAME      = TEME
TIME_SYSTEM    = UTC
MEAN_ELEMENT_THEORY = SGP/SGP4

EPOCH          = 2025-11-07T20:11:36.316320
MEAN_MOTION    = 13.84575624
ECCENTRICITY   = .0002664
INCLINATION    = 81.3028
RA_OF_ASC_NODE = 56.9863
ARG_OF_PERICENTER = 49.8224
MEAN_ANOMALY   = 310.3165

EPHEMERIS_TYPE = 0
CLASSIFICATION_TYPE = U
NORAD_CAT_ID   = 65986
ELEMENT_SET_NO = 999
REV_AT_EPOCH   = 317
BSTAR          = .2459E-3
MEAN_MOTION_DOT = .288E-5
MEAN_MOTION_DDOT = 0

CCSDS_OMM_VERS = 2.0
CREATION_DATE  = 
ORIGINATOR     = 

OBJECT_NAME    = SDA_1677
OBJECT_ID      = 2025-230P
CENTER_NAME    = EARTH
REF_FRAME      = TEME
TIME_SYSTEM    = UTC
MEAN_ELEMENT_THEORY = SGP/SGP4

EPOCH          = 2025-11-07T18:25:30.885312
MEAN_MOTION    = 13.84661322
ECCENTRICITY   = .0003022
INCLINATION    = 81.3001
RA_OF_ASC_NODE = 57.0462
ARG_OF_PERICENTER = 54.5748
MEAN_ANOMALY   = 305.5690

EPHEMERIS_TYPE = 0
CLASSIFICATION_TYPE = U
NORAD_CAT_ID   = 65987
ELEMENT_SET_NO = 999
REV_AT_EPOCH   = 316
BSTAR          = .26724E-3
MEAN_MOTION_DOT = .312E-5
MEAN_MOTION_DDOT = 0

CCSDS_OMM_VERS = 2.0
CREATION_DATE  = 
ORIGINATOR     = 

OBJECT_NAME    = SDA_1678
OBJECT_ID      = 2025-230Q
CENTER_NAME    = EARTH
REF_FRAME      = TEME
TIME_SYSTEM    = UTC
MEAN_ELEMENT_THEORY = SGP/SGP4

EPOCH          = 2025-11-07T18:05:26.484864
MEAN_MOTION    = 13.85510790
ECCENTRICITY   = .0005027
INCLINATION    = 81.3033
RA_OF_ASC_NODE = 57.0375
ARG_OF_PERICENTER = 103.1888
MEAN_ANOMALY   = 256.9830

EPHEMERIS_TYPE = 0
CLASSIFICATION_TYPE = U
NORAD_CAT_ID   = 65988
ELEMENT_SET_NO = 999
REV_AT_EPOCH   = 316
BSTAR          = .29828E-3
MEAN_MOTION_DOT = .352E-5
MEAN_MOTION_DDOT = 0

CCSDS_OMM_VERS = 2.0
CREATION_DATE  = 
ORIGINATOR     = 

OBJECT_NAME    = SDA_1679
OBJECT_ID      = 2025-230R
CENTER_NAME    = EARTH
REF_FRAME      = TEME
TIME_SYSTEM    = UTC
MEAN_ELEMENT_THEORY = SGP/SGP4

EPOCH          = 2025-11-07T19:54:12.080736
MEAN_MOTION    = 13.85310866
ECCENTRICITY   = .0005153
INCLINATION    = 81.3031
RA_OF_ASC_NODE = 56.9753
ARG_OF_PERICENTER = 91.8544
MEAN_ANOMALY   = 268.3204

EPHEMERIS_TYPE = 0
CLASSIFICATION_TYPE = U
NORAD_CAT_ID   = 65989
ELEMENT_SET_NO = 999
REV_AT_EPOCH   = 317
BSTAR          = .3685E-3
MEAN_MOTION_DOT = .431E-5
MEAN_MOTION_DDOT = 0

CCSDS_OMM_VERS = 2.0
CREATION_DATE  = 
ORIGINATOR     = 

OBJECT_NAME    = SDA_1680
OBJECT_ID      = 2025-230S
CENTER_NAME    = EARTH
REF_FRAME      = TEME
TIME_SYSTEM    = UTC
MEAN_ELEMENT_THEORY = SGP/SGP4

EPOCH          = 2025-11-07T19:57:05.007744
MEAN_MOTION    = 13.85188439
ECCENTRICITY   = .0004972
INCLINATION    = 81.3022
RA_OF_ASC_NODE = 56.9721
ARG_OF_PERICENTER = 85.0800
MEAN_ANOMALY   = 275.0924

EPHEMERIS_TYPE = 0
CLASSIFICATION_TYPE = U
NORAD_CAT_ID   = 65990
ELEMENT_SET_NO = 999
REV_AT_EPOCH   = 317
BSTAR          = .26062E-3
MEAN_MOTION_DOT = .307E-5
MEAN_MOTION_DDOT = 0

CCSDS_OMM_VERS = 2.0
CREATION_DATE  = 
ORIGINATOR     = 

OBJECT_NAME    = SDA_1681
OBJECT_ID      = 2025-230T
CENTER_NAME    = EARTH
REF_FRAME      = TEME
TIME_SYSTEM    = UTC
MEAN_ELEMENT_THEORY = SGP/SGP4

EPOCH          = 2025-11-07T18:11:10.766400
MEAN_MOTION    = 13.85268042
ECCENTRICITY   = .0005079
INCLINATION    = 81.3020
RA_OF_ASC_NODE = 57.0358
ARG_OF_PERICENTER = 89.7194
MEAN_ANOMALY   = 270.4545

EPHEMERIS_TYPE = 0
CLASSIFICATION_TYPE = U
NORAD_CAT_ID   = 65991
ELEMENT_SET_NO = 999
REV_AT_EPOCH   = 316
BSTAR          = .31586E-3
MEAN_MOTION_DOT = .371E-5
MEAN_MOTION_DDOT = 0

CCSDS_OMM_VERS = 2.0
CREATION_DATE  = 
ORIGINATOR     = 

OBJECT_NAME    = SDA_1682
OBJECT_ID      = 2025-230U
CENTER_NAME    = EARTH
REF_FRAME      = TEME
TIME_SYSTEM    = UTC
MEAN_ELEMENT_THEORY = SGP/SGP4

EPOCH          = 2025-11-07T20:05:30.002784
MEAN_MOTION    = 13.84832594
ECCENTRICITY   = .000363
INCLINATION    = 81.3048
RA_OF_ASC_NODE = 56.9861
ARG_OF_PERICENTER = 64.2554
MEAN_ANOMALY   = 295.8977

EPHEMERIS_TYPE = 0
CLASSIFICATION_TYPE = U
NORAD_CAT_ID   = 65992
ELEMENT_SET_NO = 999
REV_AT_EPOCH   = 317
BSTAR          = .22872E-3
MEAN_MOTION_DOT = .27E-5
MEAN_MOTION_DDOT = 0

CCSDS_OMM_VERS = 2.0
CREATION_DATE  = 
ORIGINATOR     = 

OBJECT_NAME    = SDA_1683
OBJECT_ID      = 2025-230V
CENTER_NAME    = EARTH
REF_FRAME      = TEME
TIME_SYSTEM    = UTC
MEAN_ELEMENT_THEORY = SGP/SGP4

EPOCH          = 2025-11-07T20:03:35.566848
MEAN_MOTION    = 13.84913852
ECCENTRICITY   = .0003963
INCLINATION    = 81.3038
RA_OF_ASC_NODE = 56.9819
ARG_OF_PERICENTER = 66.9392
MEAN_ANOMALY   = 293.2182

EPHEMERIS_TYPE = 0
CLASSIFICATION_TYPE = U
NORAD_CAT_ID   = 65993
ELEMENT_SET_NO = 999
REV_AT_EPOCH   = 317
BSTAR          = .29255E-3
MEAN_MOTION_DOT = .342E-5
MEAN_MOTION_DDOT = 0

CCSDS_OMM_VERS = 2.0
CREATION_DATE  = 
ORIGINATOR     = 

OBJECT_NAME    = SDA_1684
OBJECT_ID      = 2025-230W
CENTER_NAME    = EARTH
REF_FRAME      = TEME
TIME_SYSTEM    = UTC
MEAN_ELEMENT_THEORY = SGP/SGP4

EPOCH          = 2025-11-07T18:22:58.753056
MEAN_MOTION    = 13.84768971
ECCENTRICITY   = .0003726
INCLINATION    = 81.3022
RA_OF_ASC_NODE = 57.0482
ARG_OF_PERICENTER = 54.2974
MEAN_ANOMALY   = 305.8529

EPHEMERIS_TYPE = 0
CLASSIFICATION_TYPE = U
NORAD_CAT_ID   = 65994
ELEMENT_SET_NO = 999
REV_AT_EPOCH   = 316
BSTAR          = .26876E-3
MEAN_MOTION_DOT = .314E-5
MEAN_MOTION_DDOT = 0

CCSDS_OMM_VERS = 2.0
CREATION_DATE  = 
ORIGINATOR     = 

OBJECT_NAME    = HULIANWANG DIGUI 12A
OBJECT_ID      = 2025-231A
CENTER_NAME    = EARTH
REF_FRAME      = TEME
TIME_SYSTEM    = UTC
MEAN_ELEMENT_THEORY = SGP/SGP4

EPOCH          = 2025-11-07T05:41:41.335008
MEAN_MOTION    = 14.03200959
ECCENTRICITY   = .0005295
INCLINATION    = 50.0029
RA_OF_ASC_NODE = 267.4226
ARG_OF_PERICENTER = 343.1418
MEAN_ANOMALY   = 16.9309

EPHEMERIS_TYPE = 0
CLASSIFICATION_TYPE = U
NORAD_CAT_ID   = 65995
ELEMENT_SET_NO = 999
REV_AT_EPOCH   = 312
BSTAR          = .16475E-3
MEAN_MOTION_DOT = .107E-5
MEAN_MOTION_DDOT = 0

CCSDS_OMM_VERS = 2.0
CREATION_DATE  = 
ORIGINATOR     = 

OBJECT_NAME    = HULIANWANG DIGUI 12B
OBJECT_ID      = 2025-231B
CENTER_NAME    = EARTH
REF_FRAME      = TEME
TIME_SYSTEM    = UTC
MEAN_ELEMENT_THEORY = SGP/SGP4

EPOCH          = 2025-11-07T04:03:01.827360
MEAN_MOTION    = 14.03320872
ECCENTRICITY   = .0008062
INCLINATION    = 49.9979
RA_OF_ASC_NODE = 267.7211
ARG_OF_PERICENTER = 339.1434
MEAN_ANOMALY   = 20.9140

EPHEMERIS_TYPE = 0
CLASSIFICATION_TYPE = U
NORAD_CAT_ID   = 65996
ELEMENT_SET_NO = 999
REV_AT_EPOCH   = 311
BSTAR          = .15702E-3
MEAN_MOTION_DOT = .95E-6
MEAN_MOTION_DDOT = 0

CCSDS_OMM_VERS = 2.0
CREATION_DATE  = 
ORIGINATOR     = 

OBJECT_NAME    = HULIANWANG DIGUI 12C
OBJECT_ID      = 2025-231C
CENTER_NAME    = EARTH
REF_FRAME      = TEME
TIME_SYSTEM    = UTC
MEAN_ELEMENT_THEORY = SGP/SGP4

EPOCH          = 2025-11-07T05:39:53.793792
MEAN_MOTION    = 14.03248613
ECCENTRICITY   = .0006082
INCLINATION    = 49.9974
RA_OF_ASC_NODE = 267.4092
ARG_OF_PERICENTER = 339.8244
MEAN_ANOMALY   = 20.2419

EPHEMERIS_TYPE = 0
CLASSIFICATION_TYPE = U
NORAD_CAT_ID   = 65997
ELEMENT_SET_NO = 999
REV_AT_EPOCH   = 312
BSTAR          = .16343E-3
MEAN_MOTION_DOT = .105E-5
MEAN_MOTION_DDOT = 0

