SDA_1676                
1 65986U 25230N   25311.84139255  .00000288  00000+0  24590-3 0  9995
2 65986  81.3028  56.9863 0002664  49.8224 310.3165 13.84575624  3177
SDA_1677                
1 65987U 25230P   25311.76771858  .00000312  00000+0  26724-3 0  9997
2 65987  81.3001  57.0462 0003022  54.5748 305.5690 13.84661322  3168
SDA_1678                
1 65988U 25230Q   25311.75377876  .00000352  00000+0  29828-3 0  9991
2 65988  81.3033  57.0375 0005027 103.1888 256.9830 13.85510790  3168
SDA_1679                
1 65989U 25230R   25311.82930649  .00000431  00000+0  36850-3 0  9994
2 65989  81.3031  56.9753 0005153  91.8544 268.3204 13.85310866  3172
SDA_1680                
1 65990U 25230S   25311.83130796  .00000307  00000+0  26062-3 0  9998
2 65990  81.3022  56.9721 0004972  85.0800 275.0924 13.85188439  3170
SDA_1681                
1 65991U 25230T   25311.75776350  .00000371  00000+0  31586-3 0  9990
2 65991  81.3020  57.0358 0005079  89.7194 270.4545 13.85268042  3169
SDA_1682                
1 65992U 25230U   25311.83715281  .00000270  00000+0  22872-3 0  9992
2 65992  81.3048  56.9861 0003630  64.2554 295.8977 13.84832594  3175
SDA_1683                
1 65993U 25230V   25311.83582832  .00000342  00000+0  29255-3 0  9999
2 65993  81.3038  56.9819 0003963  66.9392 293.2182 13.84913852  3173
SDA_1684                
1 65994U 25230W   25311.76595779  .00000314  00000+0  26876-3 0  9991
2 65994  81.3022  57.0482 0003726  54.2974 305.8529 13.84768971  3162
HULIANWANG DIGUI 12A    
1 65995U 25231A   25311.23728397  .00000107  00000+0  16475-3 0  9993
2 65995  50.0029 267.4226 0005295 343.1418  16.9309 14.03200959  3123
HULIANWANG DIGUI 12B    
1 65996U 25231B   25311.16877115  .00000095  00000+0  15702-3 0  9997
2 65996  49.9979 267.7211 0008062 339.1434  20.9140 14.03320872  3114
HULIANWANG DIGUI 12C    
1 65997U 25231C   25311.23603928  .00000105  00000+0  16343-3 0  9999
2 65997  49.9974 267.4092 0006082 339.8244  20.2419 14.03248613  3125
